CCSDS_OMM_VERS,COMMENT,CREATION_DATE,ORIGINATOR,OBJECT_NAME,OBJECT_ID,CENTER_NAME,REF_FRAME,TIME_SYSTEM,MEAN_ELEMENT_THEORY,EPOCH,MEAN_MOTION,ECCENTRICITY,INCLINATION,RA_OF_ASC_NODE,ARG_OF_PERICENTER,MEAN_ANOMALY,EPHEMERIS_TYPE,CLASSIFICATION_TYPE,NORAD_CAT_ID,ELEMENT_SET_NO,REV_AT_EPOCH,BSTAR,MEAN_MOTION_DOT,MEAN_MOTION_DDOT,SEMIMAJOR_AXIS,PERIOD,APOAPSIS,PERIAPSIS,OBJECT_TYPE,RCS_SIZE,COUNTRY_CODE,LAUNCH_DATE,SITE,DECAY_DATE,FILE,GP_ID,TLE_LINE0,TLE_LINE1,TLE_LINE2,NORAD_KEY
3.0,GENERATED VIA SPACE-TRACK.ORG API,2026-05-06T14:56:52,18 SPCS,UFO 6 (USA 114),1995-057A,EARTH,TEME,UTC,SGP4,2026-05-06T13:25:32.882304,0.98768084,0.0003367,11.5119,14.9733,179.2349,49.1565,0,U,23696,999,11136,0.00000000000000,-0.00000198,0.0000000000000,42591.613,1457.961,36227.819,36199.138,PAYLOAD,LARGE,US,1995-10-22,AFETR,,5177516,322305814,0 UFO 6 (USA 114),1 23696U 95057A   26126.55940836 -.00000198  00000-0  00000+0 0  9997,2 23696  11.5119  14.9733 0003367 179.2349  49.1565  0.98768084111369,23696
3.0,GENERATED VIA SPACE-TRACK.ORG API,2026-05-06T14:56:52,18 SPCS,COSMOS 1961,1988-066A,EARTH,TEME,UTC,SGP4,2026-05-06T11:18:41.298048,1.00269077,0.0002789,11.5181,330.0001,147.5784,356.5008,0,U,19344,999,13859,0.00000000000000,-0.00000147,0.0000000000000,42165.491,1436.136,35799.116,35775.596,PAYLOAD,LARGE,CIS,1988-08-01,TTMTR,,5177394,322302797,0 COSMOS 1961,1 19344U 88066A   26126.47131132 -.00000147  00000-0  00000+0 0  9990,2 19344  11.5181 330.0001 0002789 147.5784 356.5008  1.00269077138594,19344
3.0,GENERATED VIA SPACE-TRACK.ORG API,2026-05-06T14:56:52,18 SPCS,USA 153,2000-065A,EARTH,TEME,UTC,SGP4,2026-05-06T11:57:20.858976,1.00266938,0.0003964,11.5548,35.7637,36.2289,106.0281,0,U,26575,999,3251,0.00000000000000,-0.00000318,0.0000000000000,42166.091,1436.166,35804.67,35771.241,PAYLOAD,LARGE,US,2000-10-20,AFETR,,5177594,322307851,0 USA 153,1 26575U 00065A   26126.49815809 -.00000318  00000-0  00000+0 0  9999,2 26575  11.5548  35.7637 0003964  36.2289 106.0281  1.00266938 32518,26575
3.0,GENERATED VIA SPACE-TRACK.ORG API,2026-05-06T02:32:52,18 SPCS,GALAXY 26 (TELSTAR 6),1999-005A,EARTH,TEME,UTC,SGP4,2026-05-05T15:36:25.270272,0.98999113,7.1e-05,11.5553,47.2921,36.9259,141.2447,0,U,25626,999,4357,0.00000000000000,-0.00000240,0.0000000000000,42525.325,1454.558,36150.209,36144.171,PAYLOAD,LARGE,US,1999-02-15,TTMTR,,5176277,322216663,0 GALAXY 26 (TELSTAR 6),1 25626U 99005A   26125.65029248 -.00000240  00000-0  00000-0 0  9993,2 25626  11.5553  47.2921 0000710  36.9259 141.2447  0.98999113 43571,25626
3.0,GENERATED VIA SPACE-TRACK.ORG API,2026-05-06T14:46:56,18 SPCS,USA 7,1984-129A,EARTH,TEME,UTC,SGP4,2026-05-06T09:04:51.098016,0.98856672,0.0001821,11.562,321.237,307.9909,307.8261,0,U,15453,999,2563,0.00000000000000,0.00000004,0.0000000000000,42566.164,1456.654,36195.781,36180.278,PAYLOAD,,US,1984-12-22,AFETR,,5177276,322300313,0 USA 7,1 15453U 84129A   26126.37836919  .00000004  00000-0  00000+0 0  9998,2 15453  11.5620 321.2370 0001821 307.9909 307.8261  0.98856672 25636,15453
3.0,GENERATED VIA SPACE-TRACK.ORG API,2026-05-06T14:56:52,18 SPCS,EUTE W2,1998-056A,EARTH,TEME,UTC,SGP4,2026-05-06T13:32:13.392960,0.99266577,0.000228,11.5813,38.6122,219.8955,328.0789,0,U,25491,999,10044,0.00000000000000,-0.00000264,0.0000000000000,42448.904,1450.639,36080.447,36061.09,PAYLOAD,LARGE,EUTE,1998-10-05,FRGUI,,5177564,322307485,0 EUTE W2,1 25491U 98056A   26126.56404390 -.00000264  00000-0  00000+0 0  9999,2 25491  11.5813  38.6122 0002280 219.8955 328.0789  0.99266577100442,25491
3.0,GENERATED VIA SPACE-TRACK.ORG API,2026-05-06T14:56:52,18 SPCS,GORIZONT 16,1988-071A,EARTH,TEME,UTC,SGP4,2026-05-06T11:05:06.920160,0.99971278,0.0012406,11.5845,330.0995,81.7895,266.5265,0,U,19397,999,13781,0.00000000000000,-0.00000242,0.0000000000000,42249.186,1440.414,35923.465,35818.637,PAYLOAD,LARGE,CIS,1988-08-18,TTMTR,,5177395,322302306,0 GORIZONT 16,1 19397U 88071A   26126.46188565 -.00000242  00000-0  00000+0 0  9991,2 19397  11.5845 330.0995 0012406  81.7895 266.5265  0.99971278137819,19397
3.0,GENERATED VIA SPACE-TRACK.ORG API,2026-05-06T14:56:52,18 SPCS,PALAPA C2,1996-030A,EARTH,TEME,UTC,SGP4,2026-05-06T11:36:38.109024,0.99001639,0.0005032,11.5904,38.9043,99.8274,5.2387,0,U,23864,999,10930,0.00000000000000,-0.00000116,0.0000000000000,42524.601,1454.521,36167.865,36125.068,PAYLOAD,LARGE,INDO,1996-05-16,FRGUI,,5177521,322305884,0 PALAPA C2,1 23864U 96030A   26126.48377441 -.00000116  00000-0  00000+0 0  9994,2 23864  11.5904  38.9043 0005032  99.8274   5.2387  0.99001639109306,23864
3.0,GENERATED VIA SPACE-TRACK.ORG API,2026-05-06T10:08:52,18 SPCS,EXPRESS 4A,2002-029A,EARTH,TEME,UTC,SGP4,2026-05-05T21:54:13.175136,0.99204768,0.00030835,11.5981,36.7961,88.4682,102.1234,0,U,27441,999,8734,0.00000000000000,0.00000033,0.0000000000000,42466.533,1451.543,36101.493,36075.304,PAYLOAD,LARGE,CIS,2002-06-10,TTMTR,,5176958,322266232,0 EXPRESS 4A,1 27441U 02029A   26125.91265249  .00000033  00000-0  00000-0 0  9991,2 27441  11.5981  36.7961 0003083  88.4682 102.1234  0.99204768 87347,27441
3.0,GENERATED VIA SPACE-TRACK.ORG API,2026-05-06T14:46:56,18 SPCS,RADUGA 22,1988-095A,EARTH,TEME,UTC,SGP4,2026-05-06T13:38:29.957856,1.0015822,0.0005019,11.6011,330.4206,192.9375,337.7696,0,U,19596,999,12123,0.00000000000000,-0.00000048,0.0000000000000,42196.598,1437.725,35839.642,35797.285,PAYLOAD,LARGE,CIS,1988-10-20,TTMTR,,5177316,322301768,0 RADUGA 22,1 19596U 88095A   26126.56840229 -.00000048  00000-0  00000+0 0  9995,2 19596  11.6011 330.4206 0005019 192.9375 337.7696  1.00158220121230,19596
3.0,GENERATED VIA SPACE-TRACK.ORG API,2026-05-06T14:46:56,18 SPCS,PALAPA B1,1983-059C,EARTH,TEME,UTC,SGP4,2026-05-06T06:22:42.069216,1.00185023,0.0002544,11.641,329.7869,84.3436,283.1901,0,U,14134,999,12037,0.00000000000000,0.00000083,0.0000000000000,42189.072,1437.341,35821.67,35800.204,PAYLOAD,LARGE,INDO,1983-06-18,AFETR,,5177257,322300578,0 PALAPA B1,1 14134U 83059C   26126.26576469  .00000083  00000-0  00000+0 0  9990,2 14134  11.6410 329.7869 0002544  84.3436 283.1901  1.00185023120372,14134
3.0,GENERATED VIA SPACE-TRACK.ORG API,2026-05-06T14:56:52,18 SPCS,INTELSAT 705,1995-013A,EARTH,TEME,UTC,SGP4,2026-05-06T13:28:06.985344,0.98976462,0.0018543,11.6424,38.1202,108.2574,86.5724,0,U,23528,999,11312,0.00000000000000,-0.00000236,0.0000000000000,42531.813,1454.891,36232.544,36074.811,PAYLOAD,LARGE,ITSO,1995-03-22,AFETR,,5177510,322305240,0 INTELSAT 705,1 23528U 95013A   26126.56119196 -.00000236  00000-0  00000+0 0  9994,2 23528  11.6424  38.1202 0018543 108.2574  86.5724  0.98976462113125,23528
3.0,GENERATED VIA SPACE-TRACK.ORG API,2026-05-06T10:08:52,18 SPCS,NSS 703 (INTELSAT 703),1994-064A,EARTH,TEME,UTC,SGP4,2026-05-06T01:05:59.355168,0.99307984,0.00075221,11.6496,37.1754,280.7409,269.8818,0,U,23305,999,11531,0.00000000000000,-0.00000216,0.0000000000000,42437.103,1450.034,36090.89,36027.047,PAYLOAD,LARGE,SES,1994-10-06,AFETR,,5176958,322264537,0 NSS 703 (INTELSAT 703),1 23305U 94064A   26126.04582587 -.00000216  00000-0  00000-0 0  9992,2 23305  11.6496  37.1754 0007522 280.7409 269.8818  0.99307984115317,23305
3.0,GENERATED VIA SPACE-TRACK.ORG API,2026-05-06T14:56:52,18 SPCS,ECHOSTAR 4,1998-028A,EARTH,TEME,UTC,SGP4,2026-05-06T11:44:16.118016,0.98949957,0.001517,11.67,31.5051,305.3261,178.2074,0,U,25331,999,10192,0.00000000000000,-0.00000169,0.0000000000000,42539.407,1455.281,36225.805,36096.74,PAYLOAD,LARGE,US,1998-05-07,TTMTR,,5177557,322307395,0 ECHOSTAR 4,1 25331U 98028A   26126.48907544 -.00000169  00000-0  00000+0 0  9995,2 25331  11.6700  31.5051 0015170 305.3261 178.2074  0.98949957101922,25331
3.0,GENERATED VIA SPACE-TRACK.ORG API,2026-05-06T14:56:52,18 SPCS,INTELSAT 3R (PAS 3R),1996-002A,EARTH,TEME,UTC,SGP4,2026-05-06T10:00:45.773280,0.99086399,0.0012812,11.6803,37.148,290.0266,283.4781,0,U,23764,999,11037,0.00000000000000,0.00000067,0.0000000000000,42500.347,1453.277,36176.664,36067.761,PAYLOAD,LARGE,US,1996-01-12,FRGUI,,5177519,322305854,0 INTELSAT 3R (PAS 3R),1 23764U 96002A   26126.41719645  .00000067  00000-0  00000+0 0  9995,2 23764  11.6803  37.1480 0012812 290.0266 283.4781  0.99086399110373,23764
3.0,GENERATED VIA SPACE-TRACK.ORG API,2026-05-06T10:08:52,18 SPCS,GOES 11,2000-022A,EARTH,TEME,UTC,SGP4,2026-05-05T23:28:56.587872,0.99044429,0.00040076,11.714,46.8432,268.0249,268.096,0,U,26352,999,5205,0.00000000000000,-0.00000137,0.0000000000000,42512.353,1453.893,36151.255,36117.181,PAYLOAD,LARGE,US,2000-05-03,AFETR,,5176958,322265537,0 GOES 11,1 26352U 00022A   26125.97843273 -.00000137  00000-0  00000-0 0  9993,2 26352  11.7140  46.8432 0004008 268.0249 268.0960  0.99044429 52058,26352
3.0,GENERATED VIA SPACE-TRACK.ORG API,2026-05-06T14:56:52,18 SPCS,SIRIUS 3,1998-056B,EARTH,TEME,UTC,SGP4,2026-05-06T07:14:38.778144,0.99032718,0.0002283,11.7157,34.6861,19.5314,182.7617,0,U,25492,999,10070,0.00000000000000,-0.00000008,0.0000000000000,42515.704,1454.065,36147.275,36127.863,PAYLOAD,LARGE,SES,1998-10-05,FRGUI,,5177564,322306985,0 SIRIUS 3,1 25492U 98056B   26126.30183771 -.00000008  00000-0  00000+0 0  9995,2 25492  11.7157  34.6861 0002283  19.5314 182.7617  0.99032718100701,25492
3.0,GENERATED VIA SPACE-TRACK.ORG API,2026-05-06T14:56:52,18 SPCS,THOR 3,1998-035A,EARTH,TEME,UTC,SGP4,2026-05-06T12:47:42.191808,0.98827196,0.0002827,11.7215,39.3621,209.4877,57.3895,0,U,25358,999,10207,0.00000000000000,0.00000038,0.0000000000000,42574.628,1457.089,36208.529,36184.457,PAYLOAD,LARGE,NOR,1998-06-10,AFETR,,5177559,322307416,0 THOR 3,1 25358U 98035A   26126.53312722  .00000038  00000-0  00000+0 0  9990,2 25358  11.7215  39.3621 0002827 209.4877  57.3895  0.98827196102079,25358
